ONEWEB-0619             
1 55160U 23004W   26162.63175800  .00000055  00000+0  10900-3 0  9995
2 55160  87.9146   6.9532 0002030  75.9026 284.2331 13.17648670166866
ONEWEB-0620             
1 55161U 23004X   26162.64483108 -.00000421  00000+0 -12234-2 0  9990
2 55161  87.8890  22.1807 0001835  93.3044 266.8294 13.11419827165107
ONEWEB-0621             
1 55162U 23004Y   26162.59568243  .00000559  00000+0  15401-2 0  9998
2 55162  87.8899  22.1787 0002020  81.4670 278.6687 13.11418234165078
ONEWEB-0622             
1 55163U 23004Z   26162.67707078  .00000541  00000+0  14919-2 0  9993
2 55163  87.8899  22.1648 0002515  91.8895 268.2521 13.11417217165070
ONEWEB-0623             
1 55164U 23004AA  26162.62668907  .00000112  00000+0  25603-3 0  9993
2 55164  87.9131   6.9853 0002603  81.0855 279.0571 13.17649401166854
ONEWEB-0624             
1 55165U 23004AB  26162.55542328 -.00000337  00000+0 -96635-3 0  9998
2 55165  87.8943 351.7063 0001903  87.8729 272.2618 13.12928189167334
ONEWEB-0625             
1 55166U 23004AC  26162.61657126  .00000061  00000+0  12363-3 0  9997
2 55166  87.9135   6.9829 0001742  83.2306 276.9024 13.17648555166848
ONEWEB-0626             
1 55167U 23004AD  26162.60644973  .00000054  00000+0  10496-3 0  9990
2 55167  87.9136   6.9845 0001779 100.9963 259.1368 13.17649394166840
ONEWEB-0627             
1 55168U 23004AE  26162.59462229  .00000050  00000+0  96764-4 0  9990
2 55168  87.9135   6.9872 0002342  82.7681 277.3716 13.17648033166849
ONEWEB-0628             
1 55169U 23004AF  26162.53476656 -.00000002  00000+0 -41928-4 0  9995
2 55169  87.8946 351.7772 0002423  80.6315 279.5087 13.12443280167297
ONEWEB-0629             
1 55170U 23004AG  26162.57014803 -.00000241  00000+0 -65392-3 0  9998
2 55170  87.9135   6.9880 0001948  78.1261 282.0089 13.17648997166840
ONEWEB-0631             
1 55171U 23004AH  26162.48661655  .00000067  00000+0  13780-3 0  9990
2 55171  87.9167 336.5698 0002140 103.9501 256.1869 13.18685238168923
ONEWEB-0709             
1 55172U 23004AJ  26162.63466455 -.00000527  00000+0 -15242-2 0  9996
2 55172  87.8889  22.1846 0001533 113.8444 246.2845 13.11415462165146
ONEWEB-0710             
1 55173U 23004AK  26162.58450403  .00000055  00000+0  10858-3 0  9990
2 55173  87.9135   6.9803 0002015  87.8898 272.2464 13.17649350166849
ONEWEB-0711             
1 55174U 23004AL  26162.60586774  .00000484  00000+0  13291-2 0  9994
2 55174  87.8892  22.1776 0002556  85.0178 275.1242 13.11417283165105
ONEWEB-0713             
1 55175U 23004AM  26162.62450169 -.00000260  00000+0 -76984-3 0  9998
2 55175  87.8893  22.1754 0002215  85.5222 274.6159 13.11414459165091
ONEWEB-0715             
1 55176U 23004AN  26162.61941595 -.00000046  00000+0 -16535-3 0  9994
2 55176  87.8890  22.1774 0001887 106.6885 253.4450 13.11415781165138
ONEWEB-0716             
1 55177U 23004AP  26162.57775398  .00000071  00000+0  14892-3 0  9996
2 55177  87.9138   6.9844 0001646  82.6427 277.4892 13.17649420166841
ONEWEB-0717             
1 55178U 23004AQ  26162.56087785  .00000102  00000+0  22839-3 0  9997
2 55178  87.9146   6.9750 0002403  92.2298 267.9108 13.17648376166890
ONEWEB-0719             
1 55179U 23004AR  26162.57100926  .00000077  00000+0  16609-3 0  9991
2 55179  87.9145   6.9532 0001791  80.9336 279.1998 13.17648927166843
ONEWEB-0530             
1 55796U 23029A   26162.55968867  .00000068  00000+0  13617-3 0  9993
2 55796  87.9181 275.5909 0002361  93.9772 266.1631 13.20771512160409
ONEWEB-0534             
1 55797U 23029B   26162.54789821  .00000013  00000+0 -48884-6 0  9992
2 55797  87.9182 275.5938 0001841  99.5459 260.5882 13.20771725160401
ONEWEB-0556             
1 55798U 23029C   26162.55463763  .00000038  00000+0  62131-4 0  9993
2 55798  87.9179 275.5920 0001801  74.0618 286.0713 13.20774056160406
ONEWEB-0562             
1 55799U 23029D   26162.69267328 -.00000056  00000+0 -17033-3 0  9990
2 55799  87.9181 275.5453 0002444  81.6646 278.4764 13.20770619160424
ONEWEB-0563             
1 55800U 23029E   26162.68763424 -.00000004  00000+0 -42856-4 0  9995
2 55800  87.9181 275.5769 0001725 101.0442 259.0885 13.20772143160411
ONEWEB-0564             
1 55801U 23029F   26162.68089868 -.00000025  00000+0 -93283-4 0  9992
2 55801  87.9181 275.5515 0002219  91.9322 268.2065 13.20770865160426
ONEWEB-0638             
1 55802U 23029G   26162.37977073 -.00000801  00000+0 -21958-2 0  9993
2 55802  87.8949 290.9102 0001940  83.2390 276.8960 13.14498206158638
ONEWEB-0639             
1 55803U 23029H   26162.42147483  .00000096  00000+0  20641-3 0  9997
2 55803  87.9165 306.1249 0001038 121.0854 239.0380 13.19725713158140
ONEWEB-0640             
1 55804U 23029J   26162.61763147 -.00000167  00000+0 -48601-3 0  9997
2 55804  87.8950 290.8534 0001509  79.4529 280.6771 13.14502533158689
ONEWEB-0641             
1 55805U 23029K   26162.64417757  .00000078  00000+0  16322-3 0  9998
2 55805  87.9173 306.0692 0001715 101.4936 258.6389 13.19724952158181
ONEWEB-0642             
1 55806U 23029L   26162.63944491  .00000061  00000+0  12006-3 0  9995
2 55806  87.9166 306.0824 0001344 122.9833 237.1429 13.19724876158174
