OBJECT_NAME,OBJECT_ID,EPOCH,MEAN_MOTION,ECCENTRICITY,INCLINATION,RA_OF_ASC_NODE,ARG_OF_PERICENTER,MEAN_ANOMALY,EPHEMERIS_TYPE,CLASSIFICATION_TYPE,NORAD_CAT_ID,ELEMENT_SET_NO,REV_AT_EPOCH,BSTAR,MEAN_MOTION_DOT,MEAN_MOTION_DDOT
ONEWEB-0619,2023-004W,2026-06-11T15:09:43.891200,13.17648670,.000203,87.9146,6.9532,75.9026,284.2331,0,U,55160,999,16686,.109E-3,.55E-6,0
ONEWEB-0620,2023-004X,2026-06-11T15:28:33.405312,13.11419827,.0001835,87.8890,22.1807,93.3044,266.8294,0,U,55161,999,16510,-.12234E-2,-.421E-5,0
ONEWEB-0621,2023-004Y,2026-06-11T14:17:46.961952,13.11418234,.000202,87.8899,22.1787,81.4670,278.6687,0,U,55162,999,16507,.15401E-2,.559E-5,0
ONEWEB-0622,2023-004Z,2026-06-11T16:14:58.915392,13.11417217,.0002515,87.8899,22.1648,91.8895,268.2521,0,U,55163,999,16507,.14919E-2,.541E-5,0
ONEWEB-0623,2023-004AA,2026-06-11T15:02:25.935648,13.17649401,.0002603,87.9131,6.9853,81.0855,279.0571,0,U,55164,999,16685,.25603E-3,.112E-5,0
ONEWEB-0624,2023-004AB,2026-06-11T13:19:48.571392,13.12928189,.0001903,87.8943,351.7063,87.8729,272.2618,0,U,55165,999,16733,-.96635E-3,-.337E-5,0
ONEWEB-0625,2023-004AC,2026-06-11T14:47:51.756864,13.17648555,.0001742,87.9135,6.9829,83.2306,276.9024,0,U,55166,999,16684,.12363E-3,.61E-6,0
ONEWEB-0626,2023-004AD,2026-06-11T14:33:17.256672,13.17649394,.0001779,87.9136,6.9845,100.9963,259.1368,0,U,55167,999,16684,.10496E-3,.54E-6,0
ONEWEB-0627,2023-004AE,2026-06-11T14:16:15.365856,13.17648033,.0002342,87.9135,6.9872,82.7681,277.3716,0,U,55168,999,16684,.96764E-4,.5E-6,0
ONEWEB-0628,2023-004AF,2026-06-11T12:50:03.830784,13.12443280,.0002423,87.8946,351.7772,80.6315,279.5087,0,U,55169,999,16729,-.41928E-4,-.2E-7,0
ONEWEB-0629,2023-004AG,2026-06-11T13:41:00.789792,13.17648997,.0001948,87.9135,6.9880,78.1261,282.0089,0,U,55170,999,16684,-.65392E-3,-.241E-5,0
ONEWEB-0631,2023-004AH,2026-06-11T11:40:43.669920,13.18685238,.000214,87.9167,336.5698,103.9501,256.1869,0,U,55171,999,16892,.1378E-3,.67E-6,0
ONEWEB-0709,2023-004AJ,2026-06-11T15:13:55.017120,13.11415462,.0001533,87.8889,22.1846,113.8444,246.2845,0,U,55172,999,16514,-.15242E-2,-.527E-5,0
ONEWEB-0710,2023-004AK,2026-06-11T14:01:41.148192,13.17649350,.0002015,87.9135,6.9803,87.8898,272.2464,0,U,55173,999,16684,.10858E-3,.55E-6,0
ONEWEB-0711,2023-004AL,2026-06-11T14:32:26.972736,13.11417283,.0002556,87.8892,22.1776,85.0178,275.1242,0,U,55174,999,16510,.13291E-2,.484E-5,0
ONEWEB-0713,2023-004AM,2026-06-11T14:59:16.946016,13.11414459,.0002215,87.8893,22.1754,85.5222,274.6159,0,U,55175,999,16509,-.76984E-3,-.26E-5,0
ONEWEB-0715,2023-004AN,2026-06-11T14:51:57.538080,13.11415781,.0001887,87.8890,22.1774,106.6885,253.4450,0,U,55176,999,16513,-.16535E-3,-.46E-6,0
ONEWEB-0716,2023-004AP,2026-06-11T13:51:57.943872,13.17649420,.0001646,87.9138,6.9844,82.6427,277.4892,0,U,55177,999,16684,.14892E-3,.71E-6,0
ONEWEB-0717,2023-004AQ,2026-06-11T13:27:39.846240,13.17648376,.0002403,87.9146,6.9750,92.2298,267.9108,0,U,55178,999,16689,.22839E-3,.102E-5,0
ONEWEB-0719,2023-004AR,2026-06-11T13:42:15.200064,13.17648927,.0001791,87.9145,6.9532,80.9336,279.1998,0,U,55179,999,16684,.16609E-3,.77E-6,0
ONEWEB-0530,2023-029A,2026-06-11T13:25:57.101088,13.20771512,.0002361,87.9181,275.5909,93.9772,266.1631,0,U,55796,999,16040,.13617E-3,.68E-6,0
ONEWEB-0534,2023-029B,2026-06-11T13:08:58.405344,13.20771725,.0001841,87.9182,275.5938,99.5459,260.5882,0,U,55797,999,16040,-.48884E-6,.13E-6,0
ONEWEB-0556,2023-029C,2026-06-11T13:18:40.691232,13.20774056,.0001801,87.9179,275.5920,74.0618,286.0713,0,U,55798,999,16040,.62131E-4,.38E-6,0
ONEWEB-0562,2023-029D,2026-06-11T16:37:26.971392,13.20770619,.0002444,87.9181,275.5453,81.6646,278.4764,0,U,55799,999,16042,-.17033E-3,-.56E-6,0
ONEWEB-0563,2023-029E,2026-06-11T16:30:11.598336,13.20772143,.0001725,87.9181,275.5769,101.0442,259.0885,0,U,55800,999,16041,-.42856E-4,-.4E-7,0
ONEWEB-0564,2023-029F,2026-06-11T16:20:29.645952,13.20770865,.0002219,87.9181,275.5515,91.9322,268.2065,0,U,55801,999,16042,-.93283E-4,-.25E-6,0
ONEWEB-0638,2023-029G,2026-06-11T09:06:52.191072,13.14498206,.000194,87.8949,290.9102,83.2390,276.8960,0,U,55802,999,15863,-.21958E-2,-.801E-5,0
ONEWEB-0639,2023-029H,2026-06-11T10:06:55.425312,13.19725713,.0001038,87.9165,306.1249,121.0854,239.0380,0,U,55803,999,15814,.20641E-3,.96E-6,0
ONEWEB-0640,2023-029J,2026-06-11T14:49:23.359008,13.14502533,.0001509,87.8950,290.8534,79.4529,280.6771,0,U,55804,999,15868,-.48601E-3,-.167E-5,0
ONEWEB-0641,2023-029K,2026-06-11T15:27:36.942048,13.19724952,.0001715,87.9173,306.0692,101.4936,258.6389,0,U,55805,999,15818,.16322E-3,.78E-6,0
ONEWEB-0642,2023-029L,2026-06-11T15:20:48.040224,13.19724876,.0001344,87.9166,306.0824,122.9833,237.1429,0,U,55806,999,15817,.12006E-3,.61E-6,0
